{"type":"FeatureCollection","features":[{"type":"Feature","id":"Bidar","properties":{"district":"Bidar"},"geometry":{"type":"Polygon","coordinates":[[[77.44,17.58],[77.3,17.61],[77.15,17.63],[77.03,17.68],[76.92,17.61],[76.78,17.64],[76.7,17.64],[76.69,17.68],[76.73,17.74],[76.74,17.9],[76.83,17.89],[76.91,18.04],[76.92,18.15],[77.02,18.16],[77.11,18.16],[77.15,18.24],[77.23,18.35],[77.24,18.39],[77.37,18.45],[77.4,18.35],[77.44,18.29],[77.48,18.27],[77.56,18.29],[77.57,18.24],[77.6,18.09],[77.58,18.03],[77.66,17.97],[77.62,17.94],[77.53,17.83],[77.57,17.75],[77.45,17.63],[77.44,17.58],[77.44,17.58]]]}},{"type":"Feature","id":"Kalaburagi","properties":{"district":"Kalaburagi"},"geometry":{"type":"Polygon","coordinates":[[[76.69,17.68],[76.77,17.67],[76.99,17.66],[77.15,17.63],[77.38,17.59],[77.51,17.54],[77.69,17.48],[77.51,17.41],[77.46,17.33],[77.36,17.16],[77.48,16.97],[77.35,16.91],[77.17,16.94],[77.02,16.9],[76.91,16.82],[76.79,16.84],[76.68,16.79],[76.55,16.75],[76.44,16.71],[76.37,16.86],[76.43,16.94],[76.39,17.1],[76.26,17.15],[76.09,17.28],[76.1,17.36],[76.25,17.36],[76.41,17.37],[76.36,17.54],[76.49,17.66],[76.61,17.77],[76.69,17.68],[76.69,17.68]]]}},{"type":"Feature","id":"Belagavi","properties":{"district":"Belagavi"},"geometry":{"type":"Polygon","coordinates":[[[75.34,16.96],[75.26,16.61],[75.07,16.54],[75.04,16.32],[75.33,16.11],[75.42,16.05],[75.44,15.78],[75.31,15.73],[75.2,15.68],[74.9,15.63],[74.74,15.41],[74.41,15.47],[74.2,15.65],[74.1,15.66],[74.23,15.79],[74.36,15.82],[74.43,15.96],[74.48,16.09],[74.47,16.24],[74.33,16.31],[74.33,16.45],[74.29,16.53],[74.44,16.6],[74.6,16.57],[74.68,16.69],[74.92,16.77],[74.97,16.93],[75.19,16.88],[75.34,16.96],[75.34,16.96]]]}},{"type":"Feature","id":"Yadgir","properties":{"district":"Yadgir"},"geometry":{"type":"Polygon","coordinates":[[[76.46,16.71],[76.55,16.75],[76.66,16.73],[76.71,16.78],[76.75,16.82],[76.84,16.87],[76.91,16.82],[76.98,16.86],[77.04,16.92],[77.13,16.92],[77.24,16.94],[77.35,16.91],[77.46,16.89],[77.44,16.79],[77.47,16.69],[77.48,16.65],[77.42,16.57],[77.38,16.52],[77.24,16.47],[77.27,16.4],[77.09,16.49],[77,16.55],[76.97,16.5],[76.78,16.42],[76.47,16.29],[76.3,16.32],[76.33,16.39],[76.44,16.44],[76.46,16.71],[76.46,16.71]]]}},{"type":"Feature","id":"Bagalkote","properties":{"district":"Bagalkote"},"geometry":{"type":"Polygon","coordinates":[[[75.45,15.89],[75.44,16],[75.43,16.07],[75.36,16.11],[75.29,16.2],[75.13,16.33],[75.08,16.44],[74.99,16.5],[75.14,16.52],[75.17,16.6],[75.28,16.7],[75.42,16.77],[75.47,16.56],[75.43,16.43],[75.49,16.42],[75.57,16.41],[75.81,16.37],[76.06,16.22],[76.24,16.16],[76.27,16.11],[76.26,16.07],[76.31,15.92],[76.23,15.92],[76.12,15.89],[76.06,16.01],[75.93,15.88],[75.77,15.9],[75.85,15.87],[75.78,15.85],[75.69,15.83],[75.64,15.84],[75.57,15.84],[75.52,15.86],[75.45,15.89],[75.45,15.89]]]}},{"type":"Feature","id":"Raichur","properties":{"district":"Raichur"},"geometry":{"type":"Polygon","coordinates":[[[76.33,16.2],[76.74,16.41],[76.87,16.49],[76.98,16.56],[77.01,16.5],[77.24,16.42],[77.3,16.41],[77.43,16.37],[77.52,16.38],[77.59,16.33],[77.54,16.27],[77.5,16.22],[77.51,16.08],[77.25,15.96],[77.07,15.91],[77,15.81],[76.83,15.56],[76.68,15.63],[76.6,15.7],[76.41,15.8],[76.35,15.9],[76.31,15.89],[76.28,15.93],[76.3,16.07],[76.33,16.09],[76.24,16.16],[76.33,16.2],[76.33,16.2]]]}},{"type":"Feature","id":"Koppal","properties":{"district":"Koppal"},"geometry":{"type":"Polygon","coordinates":[[[75.85,15.84],[75.81,15.89],[75.9,15.92],[75.97,15.99],[76.06,15.91],[76.2,15.94],[76.29,15.89],[76.34,15.87],[76.43,15.89],[76.49,15.71],[76.67,15.64],[76.75,15.59],[76.71,15.49],[76.48,15.35],[76.26,15.21],[76.16,15.2],[75.98,15.15],[75.91,15.24],[75.9,15.4],[75.81,15.48],[75.87,15.6],[75.87,15.71],[75.91,15.74],[75.97,15.68],[75.98,15.69],[76.03,15.77],[75.85,15.84],[75.85,15.84]]]}},{"type":"Feature","id":"Gadag","properties":{"district":"Gadag"},"geometry":{"type":"Polygon","coordinates":[[[75.29,15.69],[75.3,15.73],[75.33,15.81],[75.41,15.79],[75.48,15.87],[75.56,15.83],[75.62,15.82],[75.68,15.82],[75.74,15.81],[75.85,15.84],[76,15.78],[76,15.71],[75.97,15.68],[75.91,15.74],[75.89,15.72],[75.9,15.61],[75.81,15.49],[75.87,15.41],[75.9,15.24],[75.93,15.14],[75.88,15.05],[75.78,14.98],[75.69,14.97],[75.61,14.96],[75.5,15.05],[75.4,15.17],[75.44,15.23],[75.41,15.28],[75.47,15.4],[75.48,15.53],[75.47,15.7],[75.34,15.65],[75.29,15.69],[75.29,15.69]]]}},{"type":"Feature","id":"Ballari","properties":{"district":"Ballari"},"geometry":{"type":"Polygon","coordinates":[[[76.81,15.55],[77.03,15.84],[77.08,15.72],[76.97,15.51],[77.06,15.33],[77.13,15.24],[77.14,15.14],[77.04,15.01],[76.84,15.08],[76.73,14.98],[76.67,15.02],[76.66,14.94],[76.71,14.84],[76.61,14.67],[76.53,14.56],[76.39,14.65],[76.25,14.7],[76.14,14.79],[76.13,14.87],[76,14.9],[75.83,14.88],[75.83,14.81],[75.76,14.74],[75.69,14.78],[75.73,14.9],[75.74,14.95],[75.9,15.06],[75.98,15.15],[76.19,15.23],[76.36,15.33],[76.71,15.49],[76.81,15.55],[76.81,15.55]]]}},{"type":"Feature","id":"Dharwad","properties":{"district":"Dharwad"},"geometry":{"type":"Polygon","coordinates":[[[74.74,15.41],[74.75,15.5],[74.8,15.55],[74.9,15.63],[75.03,15.67],[75.06,15.63],[75.2,15.68],[75.28,15.69],[75.34,15.65],[75.45,15.68],[75.5,15.65],[75.48,15.53],[75.5,15.47],[75.44,15.39],[75.41,15.28],[75.42,15.26],[75.43,15.21],[75.4,15.17],[75.37,15.05],[75.35,15.1],[75.31,15.15],[75.25,15.1],[75.16,15.11],[75.14,15.16],[75.11,15.14],[75.06,15.07],[74.94,15.05],[74.89,15.05],[74.86,15.1],[74.88,15.19],[74.9,15.28],[74.85,15.34],[74.82,15.38],[74.77,15.42],[74.74,15.41],[74.74,15.41]]]}},{"type":"Feature","id":"Uttara Kannada","properties":{"district":"Uttara Kannada"},"geometry":{"type":"Polygon","coordinates":[[[74.28,15.52],[74.47,15.41],[74.74,15.41],[74.82,15.37],[74.91,15.25],[74.89,15.1],[75.01,15.07],[75.1,14.93],[75.05,14.74],[75.02,14.59],[74.99,14.5],[74.89,14.48],[74.95,14.4],[74.97,14.32],[74.93,14.28],[74.87,14.24],[74.75,14.14],[74.66,14.06],[74.63,13.95],[74.44,14.22],[74.28,14.63],[74.21,14.72],[74.09,14.8],[74.12,14.93],[74.25,14.96],[74.32,15.19],[74.32,15.37],[74.28,15.52],[74.28,15.52]]]}},{"type":"Feature","id":"Haveri","properties":{"district":"Haveri"},"geometry":{"type":"Polygon","coordinates":[[[75.42,15.09],[75.54,15.01],[75.63,14.99],[75.7,14.95],[75.74,14.89],[75.67,14.8],[75.72,14.72],[75.74,14.69],[75.81,14.65],[75.72,14.47],[75.64,14.43],[75.54,14.28],[75.48,14.32],[75.36,14.43],[75.3,14.54],[75.21,14.57],[75.17,14.63],[75.03,14.71],[75.07,14.78],[75.1,14.93],[75.08,15.11],[75.14,15.16],[75.19,15.1],[75.31,15.15],[75.33,15.09],[75.42,15.09],[75.42,15.09]]]}},{"type":"Feature","id":"Chitradurga","properties":{"district":"Chitradurga"},"geometry":{"type":"Polygon","coordinates":[[[76.51,14.56],[76.6,14.62],[76.61,14.69],[76.74,14.82],[76.68,14.91],[76.72,14.95],[76.69,15.03],[76.73,15.01],[76.83,14.96],[76.84,14.84],[76.78,14.68],[76.87,14.47],[76.92,14.42],[76.96,14.29],[77,14.23],[76.89,14.17],[76.93,14.08],[76.82,13.99],[76.75,13.92],[76.75,13.78],[76.67,13.72],[76.53,13.67],[76.41,13.58],[76.33,13.6],[76.22,13.71],[76.1,13.86],[76.03,13.9],[76.05,13.98],[76.03,14.09],[76.14,14.26],[76.16,14.32],[76.22,14.44],[76.42,14.44],[76.53,14.54],[76.51,14.56],[76.51,14.56]]]}},{"type":"Feature","id":"Davanagere","properties":{"district":"Davanagere"},"geometry":{"type":"Polygon","coordinates":[[[75.76,14.73],[75.83,14.78],[75.82,14.83],[75.85,14.88],[75.98,14.91],[76.08,14.91],[76.16,14.85],[76.15,14.78],[76.23,14.65],[76.34,14.67],[76.42,14.58],[76.53,14.54],[76.4,14.44],[76.21,14.46],[76.12,14.32],[76.08,14.24],[76.05,14.1],[76.05,13.98],[76.03,13.9],[75.99,13.85],[75.87,13.85],[75.82,14.06],[75.72,14.08],[75.54,14.08],[75.48,14.18],[75.54,14.28],[75.64,14.43],[75.72,14.47],[75.81,14.65],[75.74,14.69],[75.76,14.73],[75.76,14.73]]]}},{"type":"Feature","id":"Shivamogga","properties":{"district":"Shivamogga"},"geometry":{"type":"Polygon","coordinates":[[[74.67,13.99],[74.63,14.14],[74.79,14.23],[74.94,14.24],[74.91,14.29],[74.97,14.34],[74.88,14.45],[74.98,14.55],[75.06,14.54],[75.16,14.62],[75.23,14.58],[75.32,14.51],[75.35,14.39],[75.51,14.22],[75.53,14.1],[75.74,14.09],[75.83,13.97],[75.77,13.8],[75.64,13.7],[75.57,13.74],[75.45,13.72],[75.39,13.62],[75.3,13.59],[75.22,13.56],[75.1,13.49],[75.03,13.57],[75.01,13.66],[74.93,13.79],[74.71,13.9],[74.67,13.99],[74.67,13.99]]]}},{"type":"Feature","id":"Udupi","properties":{"district":"Udupi"},"geometry":{"type":"Polygon","coordinates":[[[74.58,13.93],[74.65,13.94],[74.67,13.99],[74.69,13.93],[74.82,13.91],[74.91,13.86],[75,13.74],[75.01,13.68],[75.02,13.63],[75.04,13.58],[75.06,13.53],[75.08,13.51],[75.14,13.46],[75.15,13.39],[75.09,13.36],[75.17,13.2],[75.12,13.14],[75.06,13.13],[74.97,13.13],[74.94,13.14],[74.91,13.13],[74.83,13.13],[74.79,13.1],[74.7,13.35],[74.69,13.46],[74.58,13.93],[74.58,13.93]]]}},{"type":"Feature","id":"Chikkamagaluru","properties":{"district":"Chikkamagaluru"},"geometry":{"type":"Polygon","coordinates":[[[76.03,13.9],[76.11,13.81],[76.22,13.68],[76.34,13.58],[76.31,13.53],[76.2,13.45],[76.09,13.39],[76.04,13.25],[75.88,13.26],[75.78,13.21],[75.73,13.12],[75.71,13.04],[75.6,12.94],[75.53,13.01],[75.45,13.11],[75.39,13.17],[75.28,13.13],[75.21,13.18],[75.09,13.36],[75.16,13.43],[75.23,13.53],[75.23,13.6],[75.34,13.58],[75.39,13.62],[75.38,13.71],[75.49,13.77],[75.61,13.76],[75.64,13.7],[75.69,13.77],[75.88,13.81],[76.01,13.87],[76.03,13.9],[76.03,13.9]]]}},{"type":"Feature","id":"Chikkaballapura","properties":{"district":"Chikkaballapura"},"geometry":{"type":"Polygon","coordinates":[[[77.45,13.68],[77.53,13.69],[77.56,13.72],[77.62,13.77],[77.72,13.8],[77.83,13.88],[77.9,13.94],[77.99,13.9],[78.05,13.9],[78.13,13.79],[78.09,13.66],[78.2,13.63],[78.2,13.57],[78.2,13.51],[78.12,13.38],[78.11,13.32],[78.02,13.28],[77.94,13.27],[77.89,13.23],[77.86,13.22],[77.82,13.26],[77.83,13.33],[77.72,13.35],[77.66,13.36],[77.62,13.4],[77.59,13.44],[77.5,13.46],[77.39,13.53],[77.36,13.59],[77.45,13.68],[77.45,13.68]]]}},{"type":"Feature","id":"Hassan","properties":{"district":"Hassan"},"geometry":{"type":"Polygon","coordinates":[[[75.56,12.92],[75.71,13.04],[75.73,13.16],[75.86,13.26],[76.04,13.25],[76.14,13.44],[76.29,13.51],[76.43,13.53],[76.39,13.41],[76.36,13.25],[76.47,13.09],[76.61,13.07],[76.61,13.01],[76.6,12.92],[76.49,12.77],[76.41,12.86],[76.33,12.79],[76.34,12.66],[76.3,12.63],[76.19,12.59],[76.09,12.55],[75.97,12.58],[75.94,12.68],[75.93,12.81],[75.88,12.78],[75.89,12.68],[75.71,12.71],[75.65,12.72],[75.6,12.88],[75.56,12.92],[75.56,12.92]]]}},{"type":"Feature","id":"Kolar","properties":{"district":"Kolar"},"geometry":{"type":"Polygon","coordinates":[[[77.94,13.25],[77.99,13.3],[78.13,13.29],[78.15,13.36],[78.2,13.45],[78.2,13.56],[78.24,13.6],[78.37,13.51],[78.38,13.33],[78.48,13.3],[78.58,13.28],[78.55,13.2],[78.52,13.13],[78.47,12.99],[78.44,12.93],[78.39,12.91],[78.31,12.88],[78.13,12.78],[78.02,12.81],[77.95,12.86],[77.94,12.87],[77.91,12.88],[77.84,12.92],[77.91,13.05],[77.9,13.1],[77.96,13.19],[77.94,13.25],[77.94,13.25]]]}},{"type":"Feature","id":"Bengaluru Rural","properties":{"district":"Bengaluru Rural"},"geometry":{"type":"Polygon","coordinates":[[[77.39,13.51],[77.5,13.45],[77.6,13.44],[77.61,13.39],[77.67,13.35],[77.73,13.35],[77.81,13.31],[77.81,13.24],[77.86,13.24],[77.91,13.24],[77.96,13.22],[77.92,13.12],[77.93,13.07],[77.84,12.92],[77.86,12.87],[77.8,12.92],[77.77,13.11],[77.68,13.2],[77.6,13.2],[77.56,13.23],[77.43,13.16],[77.43,13.09],[77.38,13.03],[77.33,12.97],[77.31,13.05],[77.22,13.14],[77.18,13.26],[77.28,13.3],[77.36,13.42],[77.39,13.51],[77.39,13.51]]]}},{"type":"Feature","id":"Dakshina Kannada","properties":{"district":"Dakshina Kannada"},"geometry":{"type":"Polygon","coordinates":[[[74.78,13.07],[74.83,13.13],[74.93,13.15],[74.97,13.13],[75.08,13.16],[75.21,13.18],[75.28,13.13],[75.39,13.17],[75.45,13.11],[75.53,13.01],[75.56,12.91],[75.62,12.86],[75.65,12.72],[75.67,12.7],[75.67,12.55],[75.53,12.5],[75.47,12.5],[75.38,12.5],[75.3,12.5],[75.29,12.58],[75.24,12.57],[75.2,12.63],[75.13,12.67],[75.05,12.67],[74.98,12.74],[74.99,12.79],[74.93,12.78],[74.78,13.07],[74.78,13.07]]]}},{"type":"Feature","id":"Bengaluru Urban","properties":{"district":"Bengaluru Urban"},"geometry":{"type":"Polygon","coordinates":[[[77.33,12.97],[77.37,12.99],[77.39,13.05],[77.43,13.09],[77.39,13.12],[77.48,13.22],[77.56,13.23],[77.57,13.2],[77.66,13.2],[77.68,13.2],[77.72,13.13],[77.78,13.03],[77.8,12.92],[77.83,12.87],[77.79,12.84],[77.8,12.8],[77.79,12.75],[77.76,12.7],[77.71,12.68],[77.66,12.68],[77.57,12.7],[77.59,12.75],[77.56,12.76],[77.55,12.8],[77.55,12.77],[77.51,12.75],[77.47,12.79],[77.44,12.81],[77.43,12.85],[77.38,12.86],[77.34,12.89],[77.33,12.97],[77.33,12.97]]]}},{"type":"Feature","id":"Kodagu","properties":{"district":"Kodagu"},"geometry":{"type":"Polygon","coordinates":[[[75.67,12.7],[75.81,12.7],[75.88,12.67],[75.89,12.71],[75.86,12.76],[75.86,12.82],[75.92,12.83],[75.97,12.8],[75.97,12.71],[75.95,12.66],[75.96,12.56],[75.99,12.59],[75.99,12.56],[75.99,12.52],[75.97,12.45],[75.91,12.4],[75.96,12.34],[76.03,12.25],[76.14,12.15],[76.15,12.02],[76.07,11.97],[75.87,11.95],[75.8,12.04],[75.8,12.08],[75.7,12.09],[75.64,12.15],[75.55,12.19],[75.41,12.29],[75.41,12.35],[75.37,12.46],[75.42,12.49],[75.43,12.52],[75.47,12.47],[75.53,12.5],[75.61,12.51],[75.66,12.58],[75.67,12.7],[75.67,12.7]]]}},{"type":"Feature","id":"Chamarajanagara","properties":{"district":"Chamarajanagara"},"geometry":{"type":"Polygon","coordinates":[[[76.41,11.76],[76.41,11.81],[76.55,11.86],[76.65,12.01],[76.79,12.01],[76.88,12.02],[76.89,12.06],[76.83,12.13],[76.87,12.14],[77,12.16],[77.05,12.17],[77.12,12.24],[77.22,12.3],[77.37,12.28],[77.47,12.24],[77.47,12.21],[77.61,12.21],[77.75,12.16],[77.62,11.95],[77.49,11.89],[77.36,11.78],[77.11,11.77],[77.05,11.79],[76.97,11.78],[76.83,11.64],[76.59,11.62],[76.46,11.66],[76.43,11.73],[76.41,11.76],[76.41,11.76]]]}},{"type":"Feature","id":"Tumakuru","properties":{"district":"Tumakuru"},"geometry":{"type":"Polygon","coordinates":[[[76.35,13.58],[76.5,13.62],[76.67,13.72],[76.77,13.79],[76.85,13.96],[76.93,14.08],[76.99,13.96],[76.99,13.81],[77.09,13.77],[77.16,13.91],[77.25,13.9],[77.38,13.84],[77.44,13.8],[77.45,13.69],[77.38,13.57],[77.36,13.42],[77.25,13.3],[77.2,13.19],[77.12,13.13],[77.07,13.04],[77.13,12.98],[77.13,12.89],[77.15,12.79],[77.08,12.76],[77.01,12.78],[76.87,12.92],[76.79,13.02],[76.63,13],[76.61,13.05],[76.5,13.1],[76.38,13.23],[76.38,13.36],[76.4,13.5],[76.35,13.58],[76.35,13.58]]]}},{"type":"Feature","id":"Ramanagara","properties":{"district":"Ramanagara"},"geometry":{"type":"Polygon","coordinates":[[[77.2,13.19],[77.29,13.11],[77.32,13.01],[77.33,12.88],[77.43,12.85],[77.48,12.81],[77.51,12.75],[77.55,12.8],[77.56,12.76],[77.57,12.73],[77.6,12.67],[77.59,12.62],[77.58,12.48],[77.62,12.37],[77.48,12.27],[77.42,12.29],[77.33,12.36],[77.24,12.47],[77.17,12.48],[77.13,12.57],[77.07,12.68],[77.1,12.78],[77.15,12.79],[77.15,12.85],[77.14,12.92],[77.14,13.01],[77.07,13.04],[77.09,13.14],[77.16,13.19],[77.2,13.19],[77.2,13.19]]]}},{"type":"Feature","id":"Mandya","properties":{"district":"Mandya"},"geometry":{"type":"Polygon","coordinates":[[[76.34,12.65],[76.34,12.73],[76.33,12.81],[76.41,12.86],[76.47,12.77],[76.52,12.84],[76.62,12.94],[76.65,13.01],[76.79,13.02],[76.89,12.93],[76.92,12.8],[77.03,12.76],[77.08,12.75],[77.12,12.62],[77.13,12.48],[77.23,12.47],[77.29,12.39],[77.27,12.31],[77.11,12.24],[77,12.24],[76.99,12.33],[76.93,12.34],[76.9,12.41],[76.8,12.36],[76.73,12.34],[76.65,12.39],[76.56,12.4],[76.41,12.56],[76.34,12.65],[76.34,12.65]]]}},{"type":"Feature","id":"Mysuru","properties":{"district":"Mysuru"},"geometry":{"type":"Polygon","coordinates":[[[76.02,12.57],[76.11,12.51],[76.19,12.59],[76.28,12.63],[76.33,12.61],[76.4,12.57],[76.45,12.48],[76.62,12.37],[76.7,12.35],[76.76,12.31],[76.85,12.41],[76.94,12.35],[76.98,12.35],[76.97,12.29],[77.11,12.22],[77.13,12.23],[77.02,12.13],[76.99,12.14],[76.85,12.17],[76.88,12.08],[76.94,12.01],[76.82,12.01],[76.72,11.98],[76.56,11.95],[76.49,11.82],[76.42,11.78],[76.32,11.75],[76.21,11.86],[76.11,11.98],[76.17,12.12],[76.01,12.29],[75.91,12.4],[75.97,12.45],[75.99,12.56],[76.02,12.57],[76.02,12.57]]]}},{"type":"Feature","id":"Vijayapura","properties":{"district":"Vijayapura"},"geometry":{"type":"Polygon","coordinates":[[[76.08,17.34],[76.1,17.29],[76.19,17.19],[76.26,17.15],[76.39,17.14],[76.43,17.1],[76.43,16.93],[76.44,16.87],[76.35,16.82],[76.44,16.74],[76.46,16.71],[76.43,16.52],[76.33,16.43],[76.29,16.33],[76.33,16.19],[76.17,16.18],[76.06,16.24],[75.63,16.44],[75.55,16.46],[75.49,16.42],[75.46,16.47],[75.46,16.62],[75.38,16.76],[75.39,16.98],[75.53,16.97],[75.64,16.95],[75.68,17.07],[75.64,17.19],[75.6,17.3],[75.61,17.42],[75.73,17.42],[75.79,17.37],[75.85,17.41],[76,17.34],[76.08,17.34],[76.08,17.34]]]}}]}